IXPE                    
1 49954U 21121A   24124.58334491  .00004086  00000+0  27260-3 0  9995
2 49954   0.2312   4.4846 0010128 337.2209  70.0661 14.97583129  4840
